satname,norad_id,inclination_deg,eccentricity,mean_motion_rev_per_day,perigee_km,apogee_km,l1,l2
STARLINK-1238,45233,53.0331,0.0005423,16.14527931,230.86501771324765,238.03703068429422,1 45233U 20012BH  25274.63148856  .01327439  12893-2  10267-2 0  9995,2 45233  53.0331 320.2120 0005423  14.4555 345.6635 16.14527931311974
STARLINK-1246,45235,53.056,0.0001351,15.06390785,546.3041823242684,548.1754191358259,1 45235U 20012BK  25274.61059657 -.00001798  00000+0 -10189-3 0  9991,2 45235  53.0560  40.7529 0001351  91.8601 268.2543 15.06390785310886
STARLINK-1247,45236,53.035,0.000406,16.09315704,246.03065611683996,251.41166494318986,1 45236U 20012BL  25274.90405425  .01033861  63427-3  11266-2 0  9999,2 45236  53.0350 299.0348 0004060  31.2206 328.9068 16.09315704312308
STARLINK-1270,45237,53.056,0.0001691,15.0638975,546.071891136723,548.4140546435538,1 45237U 20012BM  25274.54793639 -.00001055  00000+0 -51976-4 0  9996,2 45237  53.0560   1.0350 0001691  90.4482 269.6700 15.06389750311419
STARLINK-1279,45360,53.0529,0.0001205,15.06400808,546.3745773329329,548.0435857385828,1 45360U 20019A   25274.77185553  .00001730  00000+0  13497-3 0  9998,2 45360  53.0529 130.0250 0001205  89.5800 270.5327 15.06400808306189
STARLINK-1301,45361,53.0526,0.0001414,15.0638052,546.2920092477852,548.2505147042721,1 45361U 20019B   25274.36180905  .00017126  00000+0  11664-2 0  9999,2 45361  53.0526 141.8706 0001414  74.0790 286.0355 15.06380520305991
STARLINK-1306,45362,53.0493,0.0009598,15.59226075,383.39974814435845,396.39166372667205,1 45362U 20019C   25274.91670139  .00175331  00000+0  21488-2 0  9992,2 45362  53.0493 138.9093 0009598 125.4570  90.6119 15.59226075  5984
STARLINK-1262,45366,53.0534,9.58e-05,15.06379525,546.6108571714785,547.937765978776,1 45366U 20019G   25274.12774381  .00017102  00000+0  11649-2 0  9992,2 45366  53.0534 162.9185 0000958 109.3763 250.7330 15.06379525305684
STARLINK-1273,45367,53.052,0.0001195,15.06425773,546.3049988180219,547.9601382449009,1 45367U 20019H   25274.68062544  .00036689  00000+0  24674-2 0  9998,2 45367  53.0520 160.4395 0001195  67.7778 292.3338 15.06425773305769
STARLINK-1276,45368,53.0541,0.0001574,15.06384577,546.1687703119933,548.3488849185269,1 45368U 20019J   25274.71749348  .00010374  00000+0  71462-3 0  9998,2 45368  53.0541 160.2756 0001574 111.2136 248.9021 15.06384577305779
STARLINK-1277,45369,53.0525,0.0001711,15.06396283,546.0380209439063,548.4078791188076,1 45369U 20019K   25274.71018725  .00005232  00000+0  36989-3 0  9999,2 45369  53.0525 160.9333 0001711 107.3690 252.7486 15.06396283305768
STARLINK-1281,45370,53.0537,0.0001499,15.06361917,546.2901520619625,548.3664065527,1 45370U 20019L   25273.97661587  .00019855  00000+0  13494-2 0  9999,2 45370  53.0537 163.6004 0001499  66.9323 293.1824 15.06361917305664
STARLINK-1300,45374,53.053,0.0001364,15.06383221,546.3183590762274,548.207608191763,1 45374U 20019Q   25274.39681324  .00019008  00000+0  12921-2 0  9995,2 45374  53.0530 161.7115 0001364 115.4052 244.7079 15.06383221305726
STARLINK-1302,45375,53.0529,0.0001658,15.06384009,546.1123375668521,548.4087994005604,1 45375U 20019R   25274.41156124  .00023048  00000+0  15618-2 0  9999,2 45375  53.0529 161.6489 0001658  68.5528 291.5637 15.06384009305725
STARLINK-1304,45376,53.052,0.0001445,15.0636606,546.3148532051355,548.3163090010739,1 45376U 20019S   25274.09825088  .00020457  00000+0  13895-2 0  9992,2 45376  53.0520 163.0540 0001445 105.2226 254.8923 15.06366060305670
STARLINK-1305,45377,53.053,0.0001076,15.06402722,546.4580488057009,547.9483820200576,1 45377U 20019T   25274.72118348  .00021770  00000+0  14758-2 0  9995,2 45377  53.0530 160.2550 0001076  73.7648 286.3460 15.06402722305772
STARLINK-1319,45379,53.0535,0.0001394,15.0638833,546.2819264634836,548.2127236133038,1 45379U 20019V   25274.38207968  .00024368  00000+0  16497-2 0  9994,2 45379  53.0535 161.7816 0001394  71.1513 288.9627 15.06388330305722
STARLINK-1258,45381,53.0326,0.0007434,16.27058359,195.5665204087145,205.34757403812546,1 45381U 20019X   25274.89867015  .04676578  12010-4  13009-2 0  9993,2 45381  53.0326  76.1268 0007434 280.6483  79.3720 16.27058359306958
STARLINK-1266,45383,53.0541,0.000161,15.06403438,546.0860415621019,548.3160004048586,1 45383U 20019Z   25274.78199285  .00007722  00000+0  53669-3 0  9993,2 45383  53.0541 139.9845 0001610 124.9009 235.2132 15.06403438306051
STARLINK-1267,45384,53.0523,0.0001308,15.06415254,546.2589775434026,548.0706364961188,1 45384U 20019AA  25274.36924488  .00003482  00000+0  25241-3 0  9993,2 45384  53.0523 142.4930 0001308  96.2267 263.8871 15.06415254305984
STARLINK-1272,45386,53.0526,0.0001472,15.06391481,546.2182524182972,548.257082720429,1 45386U 20019AC  25273.84577042 -.00003555  00000+0 -21990-3 0  9997,2 45386  53.0526 144.1891 0001472  70.8768 289.2381 15.06391481305916
STARLINK-1274,45387,53.0339,0.0008695,15.25803597,482.40301486134103,494.3438765264036,1 45387U 20019AD  25274.81841119  .00073609  00000+0  28245-2 0  9999,2 45387  53.0339 129.5195 0008695 115.5388 244.6509 15.25803597306209
STARLINK-1280,45388,53.0526,0.0001406,15.06391741,546.2631631331933,548.2105782656336,1 45388U 20019AE  25274.10196047  .00015791  00000+0  10768-2 0  9994,2 45388  53.0526 163.0355 0001406  81.2570 278.8578 15.06391741305660
STARLINK-1283,45389,53.0524,0.0001152,15.06384865,546.4601394241636,548.055750419473,1 45389U 20019AF  25274.81147495 -.00002305  00000+0 -13598-3 0  9990,2 45389  53.0524 139.8550 0001152 103.3216 256.7901 15.06384865306067
STARLINK-1284,45390,53.0539,0.0001281,15.0640024,546.3236853168964,548.0979594289875,1 45390U 20019AG  25274.78568571  .00013276  00000+0  90847-3 0  9999,2 45390  53.0539 139.9689 0001281  70.3530 289.7597 15.06400240306056
STARLINK-1292,45394,53.0493,0.0004102,15.77282111,335.38998180252656,340.9000195558838,1 45394U 20019AL  25274.91670139  .00323618  00000+0  18603-2 0  9995,2 45394  53.0493 106.3427 0004102 210.0136 274.6625 15.77282111  5961
STARLINK-1297,45395,53.0524,0.000129,15.06390943,546.3459429330824,548.132690022735,1 45395U 20019AM  25274.35811693  .00013056  00000+0  89396-3 0  9996,2 45395  53.0524 141.8870 0001290  77.6289 282.4845 15.06390943305176
STARLINK-1307,45397,53.0548,0.0001724,15.06392639,546.0401844541493,548.4280524157857,1 45397U 20019AP  25274.81516788 -.00001174  00000+0 -59949-4 0  9998,2 45397  53.0548 139.8330 0001724  85.8300 274.2886 15.06392639305885
STARLINK-1312,45398,53.0479,0.0007281,15.763884,335.79125496004053,345.5752009760063,1 45398U 20019AQ  25274.91670139  .00344843  00000+0  20550-2 0  9996,2 45398  53.0479 105.8935 0007281 133.1162 149.0323 15.76388400  5914
STARLINK-1255,45399,53.0525,0.0001242,15.06390301,546.3811521529706,548.1014161187495,1 45399U 20019AR  25274.78292183  .00011376  00000+0  78158-3 0  9991,2 45399  53.0525 129.9806 0001242 108.5019 251.6105 15.06390301306007
STARLINK-1259,45403,53.0453,0.0003612,15.89566452,301.0841036953434,305.91091646542463,1 45403U 20019AV  25274.83335647  .00424811  00000+0  13510-2 0  9998,2 45403  53.0453  87.3308 0003612 111.0546 212.1504 15.89566452  5985
STARLINK-1260,45404,53.0534,0.0001981,15.06394622,545.8561259681619,548.5999555973203,1 45404U 20019AW  25274.81609023  .00001054  00000+0  89674-4 0  9995,2 45404  53.0534 129.8317 0001981  88.9151 271.2065 15.06394622305910
STARLINK-1263,45405,53.0539,0.0001547,15.06395554,546.1538307915353,548.2965378513645,1 45405U 20019AX  25274.33692590  .00010094  00000+0  69565-3 0  9994,2 45405  53.0539 131.9829 0001547  81.4918 278.6246 15.06395554305844
STARLINK-1265,45406,53.0541,0.0002358,15.06424272,545.5041891039291,548.7701484019126,1 45406U 20019AY  25274.80871128  .00011030  00000+0  75770-3 0  9999,2 45406  53.0541 129.8644 0002358 121.1766 238.9454 15.06424272305911
STARLINK-1278,45408,53.0557,0.0002013,15.06367079,545.9183649234756,548.7065508752257,1 45408U 20019BA  25274.70273648  .00012008  00000+0  82440-3 0  9991,2 45408  53.0557 160.3387 0002013  96.6617 263.4601 15.06367079305483
STARLINK-1296,45412,53.0533,0.0001214,15.06401165,546.3672505019003,548.0487242648378,1 45412U 20019BE  25274.81241954  .00014377  00000+0  98209-3 0  9994,2 45412  53.0533 129.8473 0001214  95.2372 264.8756 15.06401165305912
STARLINK-1298,45413,53.0497,0.0010371,15.44755886,425.0325552024897,439.15833934462535,1 45413U 20019BF  25274.82781807  .00120657  00000+0  25050-2 0  9994,2 45413  53.0497 114.8398 0010371 140.3259 219.8507 15.44755886306225
STARLINK-1309,45414,53.054,0.0001266,15.06408023,546.310222693497,548.0637147223733,1 45414U 20019BG  25274.76080117  .00006557  00000+0  45856-3 0  9993,2 45414  53.0540 130.0779 0001266  99.5473 260.5659 15.06408023305893
STARLINK-1316,45415,53.0534,0.0001325,15.06398548,546.2983988391516,548.1336173863019,1 45415U 20019BH  25274.78660152  .00000727  00000+0  67695-4 0  9998,2 45415  53.0534 129.9619 0001325  90.8962 269.2178 15.06398548305937
STARLINK-1318,45416,53.0527,5.19e-05,15.56618755,397.0995336062206,397.8028396599939,1 45416U 20019BJ  25273.58632279  .00076609  00000+0  10538-2 0  9999,2 45416  53.0527 114.4545 0000519 218.5656 141.5318 15.56618755306030
STARLINK-1286,45417,53.0521,0.0001509,15.06380977,546.2248174116439,548.3149052023864,1 45417U 20019BK  25274.42631470  .00026011  00000+0  17596-2 0  9999,2 45417  53.0521 161.5815 0001509  71.0906 289.0247 15.06380977305718
STARLINK-1308,45419,53.0514,0.0001482,15.0637824,546.2519034670204,548.304596547122,1 45419U 20019BM  25274.42263013  .00026143  00000+0  17685-2 0  9990,2 45419  53.0514 161.5982 0001482 109.8776 250.2373 15.06378240305464
STARLINK-1329,45531,53.0528,0.0001367,15.06401942,546.2589116601321,548.152300328612,1 45531U 20025A   25274.78936757  .00001342  00000+0  10898-3 0  9997,2 45531  53.0528  99.9494 0001367  92.4733 267.6412 15.06401942301141
